     2              NAVIGATION DATA                         RINEX VERSION / TYPE
CCRINEXN V1.6.0 UX  CDDIS               15-NOV-19 23:30     PGM / RUN BY / DATE 
IGS BROADCAST EPHEMERIS FILE                                COMMENT             
    0.1211D-07 -0.7451D-08 -0.1192D-06  0.5960D-07          ION ALPHA           
    0.9830D+05 -0.8192D+05 -0.1966D+06  0.4588D+06          ION BETA            
   -0.931322574615D-09-0.888178419700D-15    61440     2080 DELTA-UTC: A0,A1,T,W
    18                                                      LEAP SECONDS        
                                                            END OF HEADER       
 3 19 11 15 20  0  0.0-0.372035428882D-04-0.579802872380D-11 0.000000000000D+00
    0.460000000000D+02 0.362500000000D+01 0.463662170533D-08-0.135089035823D+00
    0.210478901863D-06 0.261418323498D-02 0.880658626556D-05 0.515366735649D+04
    0.504000000000D+06 0.223517417908D-07 0.133711430591D+01 0.726431608200D-07
    0.963742958483D+00 0.215968750000D+03 0.789927999992D+00-0.794925969000D-08
    0.642883921553D-09 0.100000000000D+01 0.207900000000D+04 0.000000000000D+00
    0.200000000000D+01 0.000000000000D+00 0.232830643654D-08 0.460000000000D+02
    0.496818000000D+06 0.400000000000D+01 0.000000000000D+00 0.000000000000D+00
 4 19 11 15 20  0  0.0-0.942731276155D-05-0.409272615798D-11 0.000000000000D+00
    0.770000000000D+02-0.118750000000D+02 0.505913930489D-08 0.283809653491D+00
   -0.584870576858D-06 0.131253106520D-02 0.628642737865D-05 0.515058942032D+04
    0.504000000000D+06-0.186264514923D-08 0.241555726131D+01 0.149011611938D-07
    0.959777439611D+00 0.260406250000D+03-0.127498354018D+01-0.818819821418D-08
   -0.227866634417D-09 0.100000000000D+01 0.207900000000D+04 0.000000000000D+00
    0.640000000000D+02 0.630000000000D+02-0.419095158577D-08 0.333000000000D+03
    0.496866000000D+06 0.400000000000D+01 0.000000000000D+00 0.000000000000D+00
 5 19 11 15 20  0  0.0-0.349478796124D-05-0.454747350886D-12 0.000000000000D+00
    0.730000000000D+02-0.393750000000D+01 0.484663045304D-08-0.239894709048D+01
   -0.456348061562D-06 0.584357930347D-02 0.850856304169D-05 0.515354455757D+04
    0.504000000000D+06 0.121071934700D-06 0.130788543530D+01-0.614672899246D-07
    0.950643602328D+00 0.208750000000D+03 0.802315611391D+00-0.797783230874D-08
    0.645741183427D-09 0.100000000000D+01 0.207900000000D+04 0.000000000000D+00
    0.200000000000D+01 0.000000000000D+00-0.111758708954D-07 0.730000000000D+02
    0.496818000000D+06 0.400000000000D+01 0.000000000000D+00 0.000000000000D+00
 6 19 11 15 20  0  0.0-0.124672427773D-03-0.119371179608D-10 0.000000000000D+00
    0.820000000000D+02-0.123968750000D+03 0.374908473586D-08 0.141860984846D+01
   -0.631436705589D-05 0.154336052947D-02 0.971183180809D-05 0.515370412254D+04
    0.504000000000D+06 0.428408384323D-07 0.287478950469D+00-0.335276126862D-07
    0.977705123240D+00 0.199375000000D+03-0.120173207205D+01-0.768460580896D-08
    0.104647216119D-09 0.100000000000D+01 0.207900000000D+04 0.000000000000D+00
    0.280000000000D+01 0.000000000000D+00 0.465661287308D-08 0.820000000000D+02
    0.496818000000D+06 0.400000000000D+01 0.000000000000D+00 0.000000000000D+00
 7 19 11 15 20  0  0.0-0.149501953274D-03-0.818545231596D-11 0.000000000000D+00
    0.880000000000D+02 0.559375000000D+02 0.459376277723D-08 0.361307552950D+00
    0.304728746414D-05 0.131810087478D-01 0.105872750282D-04 0.515372590446D+04
    0.504000000000D+06-0.149011611938D-07-0.283934863187D+01 0.128522515297D-06
    0.954774719137D+00 0.171781250000D+03-0.242366329771D+01-0.809605151876D-08
   -0.551094383865D-09 0.100000000000D+01 0.207900000000D+04 0.000000000000D+00
    0.200000000000D+01 0.000000000000D+00-0.111758708954D-07 0.880000000000D+02
    0.496818000000D+06 0.400000000000D+01 0.000000000000D+00 0.000000000000D+00
 8 19 11 15 20  0  0.0-0.134799629450D-04-0.125055521494D-11 0.000000000000D+00
    0.860000000000D+02-0.525312500000D+02 0.441911264521D-08-0.283783027066D+01
   -0.261887907982D-05 0.468237372115D-02 0.151805579662D-05 0.515358307838D+04
    0.504000000000D+06-0.316649675369D-07-0.771960953627D+00-0.260770320892D-07
    0.970167743586D+00 0.356687500000D+03-0.237813184502D+00-0.826998733531D-08
   -0.118576367753D-09 0.100000000000D+01 0.207900000000D+04 0.000000000000D+00
    0.200000000000D+01 0.000000000000D+00 0.512227416039D-08 0.860000000000D+02
    0.496829000000D+06 0.400000000000D+01 0.000000000000D+00 0.000000000000D+00
 9 19 11 15 20  0  0.0-0.842013396323D-04-0.977706804406D-11 0.000000000000D+00
    0.190000000000D+02-0.115312500000D+02 0.521486007700D-08-0.256207556407D+01
   -0.553205609322D-06 0.162628409453D-02 0.594742596149D-05 0.515355092239D+04
    0.504000000000D+06 0.167638063431D-07 0.236909412584D+01 0.428408384323D-07
    0.952405747134D+00 0.261437500000D+03 0.167204307012D+01-0.820462746995D-08
   -0.173578658819D-09 0.100000000000D+01 0.207900000000D+04 0.000000000000D+00
    0.200000000000D+01 0.000000000000D+00 0.139698386192D-08 0.190000000000D+02
    0.496818000000D+06 0.400000000000D+01 0.000000000000D+00 0.000000000000D+00
10 19 11 15 20  0  0.0-0.135836191475D-03-0.147792889038D-10 0.000000000000D+00
    0.140000000000D+02 0.225000000000D+01 0.454483216764D-08-0.942081403209D+00
    0.122934579849D-06 0.504510686733D-02 0.843964517117D-05 0.515366031075D+04
    0.504000000000D+06 0.102445483208D-06 0.133396907447D+01-0.204890966415D-07
    0.963731761308D+00 0.216562500000D+03-0.274144678490D+01-0.791675833619D-08
    0.567880797372D-09 0.100000000000D+01 0.207900000000D+04 0.000000000000D+00
    0.200000000000D+01 0.000000000000D+00 0.186264514923D-08 0.140000000000D+02
    0.496818000000D+06 0.400000000000D+01 0.000000000000D+00 0.000000000000D+00
11 19 11 15 20  0  0.0-0.447177328169D-03 0.111413100967D-10 0.000000000000D+00
    0.460000000000D+02-0.124937500000D+03 0.564487798897D-08 0.226055801137D+00
   -0.668875873089D-05 0.163889587857D-01 0.552833080292D-05 0.515374591064D+04
    0.504000000000D+06-0.109896063805D-06-0.165985362414D+00-0.206753611565D-06
    0.911464518842D+00 0.249375000000D+03 0.196889922014D+01-0.899894627081D-08
   -0.171435712414D-09 0.100000000000D+01 0.207900000000D+04 0.000000000000D+00
    0.200000000000D+01 0.000000000000D+00-0.121071934700D-07 0.460000000000D+02
    0.497143000000D+06 0.400000000000D+01 0.000000000000D+00 0.000000000000D+00
12 19 11 15 20  0  0.0 0.183182302862D-03-0.397903932026D-11 0.000000000000D+00
    0.620000000000D+02 0.110375000000D+03 0.416838791580D-08-0.220440865538D+00
    0.577047467232D-05 0.759776053019D-02 0.483170151711D-05 0.515379700279D+04
    0.504000000000D+06-0.372529029846D-07-0.173621992720D+01 0.819563865662D-07
    0.980557283918D+00 0.296531250000D+03 0.109544396381D+01-0.815891127997D-08
    0.135005623526D-09 0.100000000000D+01 0.207900000000D+04 0.000000000000D+00
    0.280000000000D+01 0.000000000000D+00-0.125728547573D-07 0.620000000000D+02
    0.496818000000D+06 0.400000000000D+01 0.000000000000D+00 0.000000000000D+00
13 19 11 15 20  0  0.0-0.326256267726D-04 0.227373675443D-11 0.000000000000D+00
    0.960000000000D+02-0.903125000000D+01 0.472448250795D-08 0.234746330794D+01
   -0.501051545143D-06 0.404065905604D-02 0.688806176186D-05 0.515365851212D+04
    0.504000000000D+06 0.167638063431D-07 0.250896687014D+01-0.745058059692D-07
    0.967837231700D+00 0.250812500000D+03 0.118874007067D+01-0.789104297933D-08
   -0.299298181256D-09 0.100000000000D+01 0.207900000000D+04 0.000000000000D+00
    0.280000000000D+01 0.000000000000D+00-0.111758708954D-07 0.960000000000D+02
    0.496818000000D+06 0.400000000000D+01 0.000000000000D+00 0.000000000000D+00
14 19 11 15 20  0  0.0-0.503081828356D-04 0.216004991671D-11 0.000000000000D+00
    0.240000000000D+02-0.135625000000D+02 0.485734518507D-08 0.291684575013D+01
   -0.711530447006D-06 0.107534483541D-01 0.629387795925D-05 0.515375510025D+04
    0.504000000000D+06 0.800937414169D-07 0.246337345556D+01-0.195577740669D-06
    0.960376444585D+00 0.255718750000D+03-0.193446598481D+01-0.791140097018D-08
   -0.344300055765D-09 0.100000000000D+01 0.207900000000D+04 0.000000000000D+00
    0.200000000000D+01 0.000000000000D+00-0.977888703346D-08 0.240000000000D+02
    0.497166000000D+06 0.400000000000D+01 0.000000000000D+00 0.000000000000D+00
15 19 11 15 20  0  0.0-0.272425822914D-03 0.272848410532D-11 0.000000000000D+00
    0.490000000000D+02-0.943750000000D+01 0.572488132143D-08 0.233504645428D+01
   -0.610947608948D-06 0.120018577436D-01 0.579468905926D-05 0.515358691216D+04
    0.504000000000D+06-0.108033418655D-06 0.228464466643D+01-0.247731804848D-06
    0.927849315437D+00 0.251468750000D+03 0.837741335701D+00-0.836070539980D-08
   -0.825034365993D-10 0.100000000000D+01 0.207900000000D+04 0.000000000000D+00
    0.200000000000D+01 0.000000000000D+00-0.111758708954D-07 0.490000000000D+02
    0.496818000000D+06 0.400000000000D+01 0.000000000000D+00 0.000000000000D+00
16 19 11 15 20  0  0.0-0.934815034270D-04-0.375166564481D-11 0.000000000000D+00
    0.600000000000D+02 0.108156250000D+03 0.405159733672D-08-0.210252172594D+01
    0.558421015739D-05 0.109359155176D-01 0.398792326450D-05 0.515366829681D+04
    0.504000000000D+06 0.465661287308D-07-0.171731224499D+01-0.856816768646D-07
    0.980846347753D+00 0.315500000000D+03 0.580009321956D+00-0.786568478020D-08
    0.235009789101D-09 0.100000000000D+01 0.207900000000D+04 0.000000000000D+00
    0.200000000000D+01 0.000000000000D+00-0.102445483208D-07 0.600000000000D+02
    0.502086000000D+06 0.400000000000D+01 0.000000000000D+00 0.000000000000D+00
